ONEWEB-0325             
1 49194U 21083J   22127.58334491 -.00036670  00000+0 -93397-1 0  9997
2 49194  87.9086 273.7331 0000806  88.9447  91.1078 13.18704046  3314
ONEWEB-0326             
1 49195U 21083K   22127.58334491 -.00037563  00000+0 -95681-1 0  9998
2 49195  87.9084 273.8291 0002113 122.1234   6.5639 13.18701811  3283
ONEWEB-0327             
1 49196U 21083L   22127.58334491 -.00038532  00000+0 -98149-1 0  9998
2 49196  87.9103 273.7952 0002296 122.8537  79.2617 13.18708662  3312
ONEWEB-0328             
1 49197U 21083M   22127.58334491 -.00022613  00000+0 -62105-1 0  9995
2 49197  87.8933 258.5410 0001714 110.2366 128.1824 13.13476541  3270
ONEWEB-0331             
1 49198U 21083N   22127.58334491 -.00037890  00000+0 -96520-1 0  9997
2 49198  87.9097 273.8398 0001889 113.1116  37.6115 13.18700822  3304
ONEWEB-0333             
1 49199U 21083P   22127.58334491 -.00022025  00000+0 -60487-1 0  9995
2 49199  87.9117 258.5299 0001617  91.1744 168.3150 13.13475751  3282
ONEWEB-0334             
1 49200U 21083Q   22127.58334491 -.00000683  00000+0 -73821-4 0  9993
2 49200  87.2043 244.8850 0005264 103.0042  69.9321 14.89992750  3578
ONEWEB-0335             
1 49201U 21083R   22127.58334491 -.00021278  00000+0 -58434-1 0  9997
2 49201  87.9134 258.4774 0001719 114.3990 166.2889 13.13472820  3309
ONEWEB-0336             
1 49202U 21083S   22127.58334491 -.00020108  00000+0 -55211-1 0  9999
2 49202  87.9124 258.4791 0001730  99.4854 329.4084 13.13477626  3302
ONEWEB-0337             
1 49203U 21083T   22127.58334491 -.00019928  00000+0 -54722-1 0  9994
2 49203  87.9134 258.4604 0001592 110.9858 211.9673 13.13471407  3283
ONEWEB-0338             
1 49204U 21083U   22127.58334491 -.00001183  00000+0 -12577-3 0  9993
2 49204  87.2101 245.0596 0004835 123.0808 309.5901 14.90005405  3562
ONEWEB-0339             
1 49205U 21083V   22127.58334491 -.00019547  00000+0 -53671-1 0  9995
2 49205  87.8936 258.5379 0001305  95.7046 248.4395 13.13476053  3294
ONEWEB-0340             
1 49206U 21083W   22127.58334491 -.00038646  00000+0 -98447-1 0  9997
2 49206  87.9093 273.8404 0001624 106.0563 103.4367 13.18704599  3296
ONEWEB-0341             
1 49207U 21083X   22127.58334491 -.00038147  00000+0 -97174-1 0  9990
2 49207  87.9110 273.7478 0000660 122.7860  49.9711 13.18703846  3304
ONEWEB-0342             
1 49208U 21083Y   22127.58334491 -.00002920  00000+0 -30615-3 0  9990
2 49208  87.2064 244.9464 0004905 123.2158 116.1404 14.90016096  3562
ONEWEB-0343             
1 49209U 21083Z   22127.58334491 -.00038365  00000+0 -97728-1 0  9999
2 49209  87.9103 273.7962 0000386  69.4267 118.0220 13.18705927  3304
ONEWEB-0344             
1 49210U 21083AA  22127.58334491 -.00022210  00000+0 -60994-1 0  9998
2 49210  87.9150 258.5005 0001656 104.7904  27.7444 13.13477569  3306
ONEWEB-0345             
1 49211U 21083AB  22127.58334491 -.00019628  00000+0 -53892-1 0  9997
2 49211  87.9153 258.5205 0001699 131.0115 276.6169 13.13478369  3292
ONEWEB-0346             
1 49212U 21083AC  22127.58334491 -.00037966  00000+0 -96711-1 0  9990
2 49212  87.9098 273.7896 0002039 117.7771  40.2976 13.18702984  3305
ONEWEB-0348             
1 49213U 21083AD  22127.58334491 -.00001671  00000+0 -17643-3 0  9994
2 49213  87.2089 245.0212 0004726 113.6812  83.1952 14.90013163  3573
ONEWEB-0350             
1 49214U 21083AE  22127.58334491 -.00019333  00000+0 -53078-1 0  9999
2 49214  87.9009 258.5390 0001430 137.1856 227.9684 13.13481751  3292
ONEWEB-0351             
1 49215U 21083AF  22127.58334491 -.00001943  00000+0 -20477-3 0  9997
2 49215  87.2019 244.8226 0004780 105.0262 218.5765 14.89996380  3568
ONEWEB-0352             
1 49216U 21083AG  22127.58334491 -.00020879  00000+0 -57332-1 0  9995
2 49216  87.9077 258.5396 0001885  89.7088   0.4643 13.13477141  3295
ONEWEB-0354             
1 49217U 21083AH  22127.58334491 -.00001942  00000+0 -20459-3 0  9998
2 49217  87.2074 244.9641 0004209 111.1989 104.3684 14.90010407  3542
ONEWEB-0355             
1 49218U 21083AJ  22127.58334491 -.00020593  00000+0 -56551-1 0  9992
2 49218  87.9095 258.4859 0001364  98.9839 202.8281 13.13472442  3293
ONEWEB-0357             
1 49219U 21083AK  22127.58334491  .00000055  00000+0  28172-5 0  9994
2 49219  87.2069 244.9592 0004865 123.3155  30.4466 14.90009846  3576
ONEWEB-0332             
1 49279U 21090A   22127.58334491  .00000014  00000+0  00000+0 0  9997
2 49279  88.0809 228.0969 0002578 353.5171 121.3376 13.51992884  3421
ONEWEB-0347             
1 49280U 21090B   22127.58334491  .00026967  00000+0  10094-1 0  9990
2 49280  87.9276 227.1709 0000222 328.1859  16.4439 14.31608638  3464
ONEWEB-0349             
1 49281U 21090C   22127.58334491  .00042620  00000+0  42463-2 0  9991
2 49281  87.2101 220.7966 0000234 357.2336  92.9238 14.91402746  3560
ONEWEB-0353             
1 49282U 21090D   22127.58334491  .00000014  00000+0  00000+0 0  9991
2 49282  88.0627 228.1054 0001244 307.8217 110.8013 13.51498245  3424
ONEWEB-0356             
1 49283U 21090E   22127.58334491  .00045823  00000+0  45664-2 0  9997
2 49283  87.2099 220.7985 0000838  30.4417 179.7196 14.91377230  3565
ONEWEB-0358             
1 49284U 21090F   22127.58334491  .00034774  00000+0  37228-2 0  9998
2 49284  87.5228 224.0115 0001223  53.1072 252.7642 14.88546990  3568
ONEWEB-0359             
1 49285U 21090G   22127.58334491  .00034989  00000+0  37461-2 0  9996
2 49285  87.5254 224.0106 0001324  82.4330 299.5117 14.88542847  3554
ONEWEB-0360             
1 49286U 21090H   22127.58334491  .00046581  00000+0  46413-2 0  9995
2 49286  87.2108 220.8207 0003368 334.3095 215.2620 14.91375663  3540
ONEWEB-0361             
1 49287U 21090J   22127.58334491  .00042715  00000+0  42556-2 0  9995
2 49287  87.2101 220.8050 0000778  17.3425 272.9189 14.91404075  3570
ONEWEB-0362             
1 49288U 21090K   22127.58334491  .00000093  00000+0  19969-3 0  9992
2 49288  87.9210 243.3949 0002209  94.9058  56.3638 13.19721512  3299
ONEWEB-0363             
1 49289U 21090L   22127.58334491  .00046688  00000+0  46530-2 0  9996
2 49289  87.2122 220.8612 0001476 146.6352  20.1310 14.91368949  3567
ONEWEB-0364             
1 49290U 21090M   22127.58334491  .00027152  00000+0  10958-1 0  9997
2 49290  87.9015 227.2811 0001256 121.2532 345.1403 14.27768821  3479
ONEWEB-0365             
1 49291U 21090N   22127.58334491  .00000175  00000+0  40380-3 0  9998
2 49291  87.9214 243.3759 0001688 105.0856  16.7164 13.19721383  3308
ONEWEB-0366             
1 49292U 21090P   22127.58334491  .00000014  00000+0  00000+0 0  9992
2 49292  88.0441 228.1142 0002340 355.3883 156.0379 13.49162812  3424
ONEWEB-0367             
1 49293U 21090Q   22127.58334491  .00046112  00000+0  45906-2 0  9999
2 49293  87.2143 220.9126 0002983 347.3308 171.0206 14.91413459  3568
ONEWEB-0368             
1 49294U 21090R   22127.58334491  .00032241  00000+0  13005-1 0  9992
2 49294  87.8968 227.3008 0000989  12.4248 225.0877 14.27762953  3465
ONEWEB-0369             
1 49295U 21090S   22127.58334491  .00000203  00000+0  47439-3 0  9996
2 49295  87.9223 243.3332 0002022  97.8493  38.7774 13.19721362  3293
ONEWEB-0370             
1 49296U 21090T   22127.58334491  .00042244  00000+0  42086-2 0  9990
2 49296  87.2082 220.7581 0001219  37.8215 257.3323 14.91406921  3547
ONEWEB-0371             
1 49297U 21090U   22127.58334491  .00000341  00000+0  81869-3 0  9996
2 49297  87.9214 243.2735 0001772 107.8340 359.2927 13.19720512  3304
ONEWEB-0372             
1 49298U 21090V   22127.58334491  .00040433  00000+0  40290-2 0  9995
2 49298  87.2091 220.7689 0003134 343.1678  77.3068 14.91405092  3557
ONEWEB-0373             
1 49299U 21090W   22127.58334491  .00032082  00000+0  11997-1 0  9998
2 49299  87.9109 227.1897 0003570 339.3161 214.3659 14.31620684  3475
ONEWEB-0374             
1 49300U 21090X   22127.58334491  .00000014  00000+0  00000+0 0  9992
2 49300  88.0390 228.1164 0003241 349.9092 290.5685 13.49952715  3415
ONEWEB-0375             
1 49301U 21090Y   22127.58334491  .00034754  00000+0  37210-2 0  9997
2 49301  87.5191 223.9639 0001335  26.5723 301.0829 14.88542629  3534
ONEWEB-0376             
1 49302U 21090Z   22127.58334491  .00000228  00000+0  53651-3 0  9995
2 49302  87.9216 243.3518 0001892  94.3893  20.0818 13.19720339  3308
ONEWEB-0377             
1 49303U 21090AA  22127.58334491  .00035913  00000+0  38443-2 0  9996
2 49303  87.5174 224.0444 0001567 100.0840 292.7044 14.88544586  3559
ONEWEB-0378             
1 49304U 21090AB  22127.58334491  .00045021  00000+0  44852-2 0  9999
2 49304  87.2046 220.6531 0001178 326.6022 150.0893 14.91392502  3551
ONEWEB-0379             
1 49305U 21090AC  22127.58334491  .00000014  00000+0  00000+0 0  9997
2 49305  88.0483 228.1079 0002574  66.7944 182.0479 13.51327970  3403
ONEWEB-0380             
1 49306U 21090AD  22127.58334491  .00000188  00000+0  43697-3 0  9993
2 49306  87.9217 243.3577 0001619 108.8552  20.3661 13.19717064  3308
ONEWEB-0381             
1 49307U 21090AE  22127.58334491  .00043686  00000+0  43516-2 0  9993
2 49307  87.2131 220.8753 0001039  55.4245 211.2805 14.91405603  3546
ONEWEB-0382             
1 49308U 21090AF  22127.58334491  .00045987  00000+0  45833-2 0  9994
2 49308  87.2084 220.7318 0000476  29.2104 176.6903 14.91371452  3544
ONEWEB-0383             
1 49309U 21090AG  22127.58334491  .00000014  00000+0  00000+0 0  9991
2 49309  88.0326 228.0748 0003223  11.7978 274.6845 13.55518230  3426
ONEWEB-0384             
1 49310U 21090AH  22127.58334491  .00046605  00000+0  46447-2 0  9997
2 49310  87.2076 220.7313 0001062 359.8056 192.0533 14.91370377  3561
ONEWEB-0385             
1 49311U 21090AJ  22127.58334491  .00045610  00000+0  45445-2 0  9990
2 49311  87.2025 220.5969 0001641 332.0113 261.3213 14.91383783  3550
